{
    "links": {
        "self": "http://www.neowsapp.com/rest/v1/neo/3792425?api_key=iIulBulltgU6a56xZRHN4H3l9WmuAYTsLGpBGhQ2"
    },
    "id": "3792425",
    "neo_reference_id": "3792425",
    "name": "(2017 XP61)",
    "designation": "2017 XP61",
    "nasa_jpl_url": "http://ssd.jpl.nasa.gov/sbdb.cgi?sstr=3792425",
    "absolute_magnitude_h": 22.2,
    "estimated_diameter": {
        "kilometers": {
            "estimated_diameter_min": 0.096506147,
            "estimated_diameter_max": 0.2157943048
        },
        "meters": {
            "estimated_diameter_min": 96.5061469579,
            "estimated_diameter_max": 215.7943048444
        },
        "miles": {
            "estimated_diameter_min": 0.059966121,
            "estimated_diameter_max": 0.134088323
        },
        "feet": {
            "estimated_diameter_min": 316.6212271853,
            "estimated_diameter_max": 707.9865871058
        }
    },
    "is_potentially_hazardous_asteroid": false,
    "close_approach_data": [
        {
            "close_approach_date": "2015-12-15",
            "close_approach_date_full": "2015-Dec-15 03:21",
            "epoch_date_close_approach": 1450149660000,
            "relative_velocity": {
                "kilometers_per_second": "19.0704100562",
                "kilometers_per_hour": "68653.4762023265",
                "miles_per_hour": "42658.6002547178"
            },
            "miss_distance": {
                "astronomical": "0.4391391231",
                "lunar": "170.8251188859",
                "kilometers": "65694277.449427797",
                "miles": "40820531.1338937186"
            },
            "orbiting_body": "Earth"
        },
        {
            "close_approach_date": "2017-12-18",
            "close_approach_date_full": "2017-Dec-18 23:41",
            "epoch_date_close_approach": 1513640460000,
            "relative_velocity": {
                "kilometers_per_second": "18.2014000535",
                "kilometers_per_hour": "65525.040192537",
                "miles_per_hour": "40714.711779635"
            },
            "miss_distance": {
                "astronomical": "0.1878201225",
                "lunar": "73.0620276525",
                "kilometers": "28097490.269139075",
                "miles": "17458970.870006235"
            },
            "orbiting_body": "Earth"
        }
    ],
    "orbital_data": {
        "orbit_id": "4",
        "orbit_determination_date": "2017-12-29 06:22:25",
        "first_observation_date": "2017-12-14",
        "last_observation_date": "2017-12-28",
        "data_arc_in_days": 14,
        "observations_used": 43,
        "orbit_uncertainty": "7",
        "minimum_orbit_intersection": ".179604",
        "jupiter_tisserand_invariant": "4.087",
        "epoch_osculation": "2459000.5",
        "eccentricity": ".2901594523295165",
        "semi_major_axis": "1.626863791078455",
        "inclination": "33.83376373047065",
        "ascending_node_longitude": "87.92014574136863",
        "orbital_period": "757.9232273875361",
        "perihelion_distance": "1.15481388444441",
        "perihelion_argument": "344.4531511765581",
        "aphelion_distance": "2.098913697712501",
        "perihelion_time": "2458851.991442574542",
        "mean_anomaly": "70.538913100005",
        "mean_motion": ".4749821446175672",
        "equinox": "J2000",
        "orbit_class": {
            "orbit_class_type": "AMO",
            "orbit_class_description": "Near-Earth asteroid orbits similar to that of 1221 Amor",
            "orbit_class_range": "1.017 AU < q (perihelion) < 1.3 AU"
        }
    },
    "is_sentry_object": false
}